*******************************************************************************
Ephemeris / WWW_USER Mon Mar 24 08:37:33 2025 Pasadena, USA      / Horizons    
*******************************************************************************
Target body name: (2019 AU)                       {source: JPL#11}
Center body name: Earth (399)                     {source: DE441}
Center-site name: Mauna Kea
*******************************************************************************
Start time      : A.D. 2018-Nov-21 03:51:00.0000 UT      
Stop  time      : A.D. 2018-Nov-21 16:24:00.0000 UT      
Step-size       : 1 minutes
*******************************************************************************
Target pole/equ : undefined
Target radii    : undefined                                                    
Center geodetic : 204.5278, 19.8260847, 4.21024   {E-lon(deg),Lat(deg),Alt(km)}
Center cylindric: 204.5278, 6006.35451, 2151.0229 {E-lon(deg),Dxy(km),Dz(km)}
Center pole/equ : ITRF93                          {East-longitude positive}
Center radii    : 6378.137, 6378.137, 6356.752 km {Equator_a, b, pole_c}       
Target primary  : Sun
Vis. interferer : MOON (R_eq= 1737.400) km        {source: DE441}
Rel. light bend : Sun                             {source: DE441}
Rel. lght bnd GM: 1.3271E+11 km^3/s^2                                          
Small-body perts: Yes                             {source: SB441-N16}
Atmos refraction: NO (AIRLESS)
RA format       : HMS
Time format     : CAL 
Calendar mode   : Mixed Julian/Gregorian
RTS-only print  : NO       
EOP file        : eop.250321.p250617                                           
EOP coverage    : DATA-BASED 1962-JAN-20 TO 2025-MAR-21. PREDICTS-> 2025-JUN-16
Units conversion: 1 au= 149597870.700 km, c= 299792.458 km/s, 1 day= 86400.0 s 
Table cut-offs 1: Elevation (-90.0deg=NO ),Airmass (>38.000=NO), Daylight (YES)
Table cut-offs 2: Solar elongation (  0.0,180.0=NO ),Local Hour Angle( 0.0=NO )
Table cut-offs 3: RA/DEC angular rate (     0.0=NO )                           
*******************************************************************************
Initial IAU76/J2000 heliocentric ecliptic osculating elements (au, days, deg.):
  EPOCH=  2458490.5 ! 2019-Jan-07.00 (TDB)         Residual RMS= .17143        
   EC= .1028488096127525   QR= .9927870416208908   TP= 2458466.0562707144      
   OM= 109.6543146265929   W=  330.7265060973358   IN= 5.020660041219873       
  Equivalent ICRF heliocentric cartesian coordinates (au, au/d):
   X=-2.730606646751524E-01  Y= 8.866895536052930E-01  Z= 3.780071563225811E-01
  VX=-1.742089442644723E-02 VY=-4.449382429672076E-03 VZ=-2.237797348809624E-04
Asteroid physical parameters (km, seconds, rotational period in hours):        
   GM= n.a.                RAD= n.a.               ROTPER= n.a.                
   H= 26.7                 G= .150                 B-V= n.a.                   
                           ALBEDO= n.a.            STYP= n.a.                  
*******************************************************************************
 Date__(UT)__HR:MN     R.A._________(ICRF)_________DEC
******************************************************
$$SOE
 2018-Nov-21 10:00  m  02 51 10.388521 -62 28 32.47156
 2018-Nov-21 10:01  m  02 51 10.393525 -62 28 32.10848
 2018-Nov-21 10:02  m  02 51 10.398596 -62 28 31.74349
 2018-Nov-21 10:03  m  02 51 10.403735 -62 28 31.37660
 2018-Nov-21 10:04  m  02 51 10.408942 -62 28 31.00781
 2018-Nov-21 10:05  m  02 51 10.414220 -62 28 30.63712
 2018-Nov-21 10:06  m  02 51 10.419570 -62 28 30.26453
 2018-Nov-21 10:07  m  02 51 10.424993 -62 28 29.89005
 2018-Nov-21 10:08  m  02 51 10.430490 -62 28 29.51368
 2018-Nov-21 10:09  m  02 51 10.436063 -62 28 29.13542
 2018-Nov-21 10:10  m  02 51 10.441713 -62 28 28.75527
 2018-Nov-21 10:11  m  02 51 10.447441 -62 28 28.37323
 2018-Nov-21 10:12  m  02 51 10.453249 -62 28 27.98931
 2018-Nov-21 10:13  m  02 51 10.459137 -62 28 27.60350
 2018-Nov-21 10:14  m  02 51 10.465109 -62 28 27.21582
 2018-Nov-21 10:15  m  02 51 10.471164 -62 28 26.82625
 2018-Nov-21 10:16  m  02 51 10.477303 -62 28 26.43481
 2018-Nov-21 10:17  m  02 51 10.483530 -62 28 26.04150
 2018-Nov-21 10:18  m  02 51 10.489843 -62 28 25.64632
 2018-Nov-21 10:19  m  02 51 10.496246 -62 28 25.24926
 2018-Nov-21 10:20  m  02 51 10.502739 -62 28 24.85034
 2018-Nov-21 10:21  m  02 51 10.509324 -62 28 24.44956
 2018-Nov-21 10:22  m  02 51 10.516002 -62 28 24.04691
 2018-Nov-21 10:23  m  02 51 10.522773 -62 28 23.64240
 2018-Nov-21 10:24  m  02 51 10.529641 -62 28 23.23604
 2018-Nov-21 10:25  m  02 51 10.536605 -62 28 22.82782
 2018-Nov-21 10:26  m  02 51 10.543667 -62 28 22.41775
 2018-Nov-21 10:27  m  02 51 10.550829 -62 28 22.00583
 2018-Nov-21 10:28  m  02 51 10.558091 -62 28 21.59206
 2018-Nov-21 10:29  m  02 51 10.565456 -62 28 21.17645
 2018-Nov-21 10:30  m  02 51 10.572924 -62 28 20.75900
 2018-Nov-21 10:31  m  02 51 10.580496 -62 28 20.33971
 2018-Nov-21 10:32  m  02 51 10.588175 -62 28 19.91858
 2018-Nov-21 10:33  m  02 51 10.595960 -62 28 19.49562
 2018-Nov-21 10:34  m  02 51 10.603855 -62 28 19.07083
 2018-Nov-21 10:35  m  02 51 10.611859 -62 28 18.64421
 2018-Nov-21 10:36  m  02 51 10.619974 -62 28 18.21577
 2018-Nov-21 10:37  m  02 51 10.628201 -62 28 17.78550
 2018-Nov-21 10:38  m  02 51 10.636543 -62 28 17.35342
 2018-Nov-21 10:39  m  02 51 10.644999 -62 28 16.91952
 2018-Nov-21 10:40  m  02 51 10.653571 -62 28 16.48381
 2018-Nov-21 10:41  m  02 51 10.662261 -62 28 16.04628
 2018-Nov-21 10:42  m  02 51 10.671070 -62 28 15.60695
 2018-Nov-21 10:43  m  02 51 10.679999 -62 28 15.16582
 2018-Nov-21 10:44  m  02 51 10.689049 -62 28 14.72289
 2018-Nov-21 10:45  m  02 51 10.698222 -62 28 14.27816
 2018-Nov-21 10:46  m  02 51 10.707518 -62 28 13.83164
 2018-Nov-21 10:47  m  02 51 10.716940 -62 28 13.38333
 2018-Nov-21 10:48  m  02 51 10.726488 -62 28 12.93322
 2018-Nov-21 10:49  m  02 51 10.736164 -62 28 12.48134
 2018-Nov-21 10:50  m  02 51 10.745968 -62 28 12.02768
 2018-Nov-21 10:51  m  02 51 10.755903 -62 28 11.57223
 2018-Nov-21 10:52  m  02 51 10.765969 -62 28 11.11502
 2018-Nov-21 10:53  m  02 51 10.776168 -62 28 10.65603
 2018-Nov-21 10:54  m  02 51 10.786501 -62 28 10.19528
 2018-Nov-21 10:55  m  02 51 10.796969 -62 28 09.73276
 2018-Nov-21 10:56  m  02 51 10.807573 -62 28 09.26849
 2018-Nov-21 10:57  m  02 51 10.818315 -62 28 08.80246
 2018-Nov-21 10:58  m  02 51 10.829195 -62 28 08.33468
 2018-Nov-21 10:59  m  02 51 10.840216 -62 28 07.86514
 2018-Nov-21 11:00  m  02 51 10.851378 -62 28 07.39387
 2018-Nov-21 11:01  m  02 51 10.862683 -62 28 06.92085
 2018-Nov-21 11:02  m  02 51 10.874131 -62 28 06.44609
 2018-Nov-21 11:03  m  02 51 10.885725 -62 28 05.96961
 2018-Nov-21 11:04  m  02 51 10.897464 -62 28 05.49139
 2018-Nov-21 11:05  m  02 51 10.909352 -62 28 05.01144
 2018-Nov-21 11:06  m  02 51 10.921387 -62 28 04.52978
 2018-Nov-21 11:07  m  02 51 10.933573 -62 28 04.04640
 2018-Nov-21 11:08  m  02 51 10.945909 -62 28 03.56130
 2018-Nov-21 11:09  m  02 51 10.958398 -62 28 03.07449
 2018-Nov-21 11:10  m  02 51 10.971041 -62 28 02.58598
 2018-Nov-21 11:11  m  02 51 10.983838 -62 28 02.09576
 2018-Nov-21 11:12  m  02 51 10.996791 -62 28 01.60385
 2018-Nov-21 11:13  m  02 51 11.009901 -62 28 01.11024
 2018-Nov-21 11:14  m  02 51 11.023169 -62 28 00.61495
 2018-Nov-21 11:15  m  02 51 11.036596 -62 28 00.11796
 2018-Nov-21 11:16  m  02 51 11.050185 -62 27 59.61930
 2018-Nov-21 11:17  m  02 51 11.063935 -62 27 59.11896
 2018-Nov-21 11:18  m  02 51 11.077848 -62 27 58.61695
 2018-Nov-21 11:19  m  02 51 11.091925 -62 27 58.11327
 2018-Nov-21 11:20  m  02 51 11.106167 -62 27 57.60793
 2018-Nov-21 11:21  m  02 51 11.120576 -62 27 57.10093
 2018-Nov-21 11:22  m  02 51 11.135153 -62 27 56.59227
 2018-Nov-21 11:23  m  02 51 11.149899 -62 27 56.08196
 2018-Nov-21 11:24  m  02 51 11.164814 -62 27 55.57001
 2018-Nov-21 11:25  m  02 51 11.179901 -62 27 55.05641
 2018-Nov-21 11:26  m  02 51 11.195160 -62 27 54.54118
 2018-Nov-21 11:27  m  02 51 11.210592 -62 27 54.02432
 2018-Nov-21 11:28  m  02 51 11.226199 -62 27 53.50582
 2018-Nov-21 11:29  m  02 51 11.241982 -62 27 52.98571
 2018-Nov-21 11:30  m  02 51 11.257941 -62 27 52.46398
 2018-Nov-21 11:31  m  02 51 11.274079 -62 27 51.94063
 2018-Nov-21 11:32  m  02 51 11.290396 -62 27 51.41567
 2018-Nov-21 11:33  m  02 51 11.306893 -62 27 50.88911
 2018-Nov-21 11:34  m  02 51 11.323571 -62 27 50.36095
 2018-Nov-21 11:35  m  02 51 11.340432 -62 27 49.83120
 2018-Nov-21 11:36  m  02 51 11.357476 -62 27 49.29985
 2018-Nov-21 11:37  m  02 51 11.374706 -62 27 48.76692
 2018-Nov-21 11:38  m  02 51 11.392121 -62 27 48.23241
 2018-Nov-21 11:39  m  02 51 11.409723 -62 27 47.69633
 2018-Nov-21 11:40  m  02 51 11.427513 -62 27 47.15868
 2018-Nov-21 11:41  m  02 51 11.445493 -62 27 46.61946
 2018-Nov-21 11:42  m  02 51 11.463662 -62 27 46.07868
 2018-Nov-21 11:43  m  02 51 11.482024 -62 27 45.53635
 2018-Nov-21 11:44  m  02 51 11.500577 -62 27 44.99246
 2018-Nov-21 11:45  m  02 51 11.519324 -62 27 44.44703
 2018-Nov-21 11:46  m  02 51 11.538266 -62 27 43.90007
 2018-Nov-21 11:47  m  02 51 11.557403 -62 27 43.35156
 2018-Nov-21 11:48  m  02 51 11.576738 -62 27 42.80153
 2018-Nov-21 11:49  m  02 51 11.596270 -62 27 42.24998
 2018-Nov-21 11:50  m  02 51 11.616001 -62 27 41.69690
 2018-Nov-21 11:51  m  02 51 11.635932 -62 27 41.14232
 2018-Nov-21 11:52  m  02 51 11.656064 -62 27 40.58622
 2018-Nov-21 11:53  m  02 51 11.676398 -62 27 40.02862
 2018-Nov-21 11:54  m  02 51 11.696936 -62 27 39.46953
 2018-Nov-21 11:55  m  02 51 11.717677 -62 27 38.90894
 2018-Nov-21 11:56  m  02 51 11.738624 -62 27 38.34687
 2018-Nov-21 11:57  m  02 51 11.759777 -62 27 37.78332
 2018-Nov-21 11:58  m  02 51 11.781138 -62 27 37.21829
 2018-Nov-21 11:59  m  02 51 11.802707 -62 27 36.65179
 2018-Nov-21 12:00  m  02 51 11.824485 -62 27 36.08382
 2018-Nov-21 12:01  m  02 51 11.846474 -62 27 35.51440
 2018-Nov-21 12:02  m  02 51 11.868674 -62 27 34.94352
